[{"OBJECT_NAME":"OBJECT H","OBJECT_ID":"2025-055H","EPOCH":"2026-03-09T23:29:50.051328","MEAN_MOTION":15.30330066,"ECCENTRICITY":0.00075967,"INCLINATION":97.636,"RA_OF_ASC_NODE":211.9572,"ARG_OF_PERICENTER":140.4354,"MEAN_ANOMALY":219.7441,"EPHEMERIS_TYPE":0,"CLASSIFICATION_TYPE":"U","NORAD_CAT_ID":63298,"ELEMENT_SET_NO":999,"REV_AT_EPOCH":5423,"BSTAR":0.0015582864,"MEAN_MOTION_DOT":0.00045901,"MEAN_MOTION_DDOT":0},{"OBJECT_NAME":"STARLINK-34665","OBJECT_ID":"2025-167M","EPOCH":"2026-03-09T06:45:12.102912","MEAN_MOTION":15.30202424,"ECCENTRICITY":0.00010625,"INCLINATION":53.1613,"RA_OF_ASC_NODE":28.8152,"ARG_OF_PERICENTER":70.3211,"MEAN_ANOMALY":289.7905,"EPHEMERIS_TYPE":0,"CLASSIFICATION_TYPE":"U","NORAD_CAT_ID":65089,"ELEMENT_SET_NO":999,"REV_AT_EPOCH":3341,"BSTAR":0.0004399694,"MEAN_MOTION_DOT":0.00012695,"MEAN_MOTION_DDOT":0}]
